start=new Date('2021-08-26T00:00:00.000Z').valueOf();
sats=[{"CLASSIFICATION_TYPE":"U","EPOCH":"2021-08-25T17:47:07.437120","LAUNCH_DATE":"2021-01-24","MEAN_ANOMALY":"91.0771","TLE_LINE1":"1 47422U 21006K   21237.74105830 -.00000307  00000-0 -13262-4 0  9991","GP_ID":"183447209","ELEMENT_SET_NO":"999","INCLINATION":"97.4909","ARG_OF_PERICENTER":"269.0348","RCS_SIZE":"LARGE","SITE":"AFETR","TLE_LINE2":"2 47422  97.4909 298.3627 0000983 269.0348  91.0771 15.14320826 32561","MEAN_ELEMENT_THEORY":"SGP4","TIME_SYSTEM":"UTC","MEAN_MOTION":"15.14320826","APOAPSIS":"523.722","OBJECT_TYPE":"PAYLOAD","BSTAR":"-0.00001326200000","MEAN_MOTION_DDOT":"0.0000000000000","ECCENTRICITY":"0.00009830","EPHEMERIS_TYPE":"0","SEMIMAJOR_AXIS":"6901.178","DECAY_DATE":null,"PERIAPSIS":"522.365","NORAD_CAT_ID":"47422","COUNTRY_CODE":"US","MEAN_MOTION_DOT":"-0.00000307","OBJECT_NAME":"STARLINK-2208","CENTER_NAME":"EARTH","FILE":"3103208","PERIOD":"95.092","RA_OF_ASC_NODE":"298.3627","REF_FRAME":"TEME","REV_AT_EPOCH":"3256","OBJECT_ID":"2021-006K"},{"CLASSIFICATION_TYPE":"U","EPOCH":"2021-08-25T17:37:59.539296","TLE_LINE1":"1 47548U 21009A   21237.73471689  .00000497  00000-0  52209-4 0  9992","MEAN_ANOMALY":"313.3096","LAUNCH_DATE":"2021-02-04","RCS_SIZE":"LARGE","ARG_OF_PERICENTER":"46.7906","GP_ID":"183445719","ELEMENT_SET_NO":"999","INCLINATION":"53.0552","APOAPSIS":"547.359","MEAN_MOTION":"15.06388781","OBJECT_TYPE":"PAYLOAD","MEAN_ELEMENT_THEORY":"SGP4","TIME_SYSTEM":"UTC","TLE_LINE2":"2 47548  53.0552 249.9753 0000161  46.7906 313.3096 15.06388781 31195","SITE":"AFETR","MEAN_MOTION_DDOT":"0.0000000000000","ECCENTRICITY":"0.00001610","BSTAR":"0.00005220900000","PERIAPSIS":"547.136","SEMIMAJOR_AXIS":"6925.383","DECAY_DATE":null,"EPHEMERIS_TYPE":"0","CENTER_NAME":"EARTH","OBJECT_NAME":"STARLINK-1782","PERIOD":"95.593","FILE":"3103208","NORAD_CAT_ID":"47548","MEAN_MOTION_DOT":"0.00000497","COUNTRY_CODE":"US","OBJECT_ID":"2021-009A","REV_AT_EPOCH":"3119","REF_FRAME":"TEME","RA_OF_ASC_NODE":"249.9753"},{"EPOCH":"2021-08-25T17:32:41.406720","CLASSIFICATION_TYPE":"U","LAUNCH_DATE":"2021-02-04","MEAN_ANOMALY":"33.7260","TLE_LINE1":"1 47549U 21009B   21237.73103480  .00000472  00000-0  50576-4 0  9992","ELEMENT_SET_NO":"999","INCLINATION":"53.0546","GP_ID":"183446465","ARG_OF_PERICENTER":"326.3718","RCS_SIZE":"LARGE","SITE":"AFETR","TLE_LINE2":"2 47549  53.0546 249.9872 0000167 326.3718  33.7260 15.06386707 31197","TIME_SYSTEM":"UTC","MEAN_ELEMENT_THEORY":"SGP4","OBJECT_TYPE":"PAYLOAD","APOAPSIS":"547.370","MEAN_MOTION":"15.06386707","BSTAR":"0.00005057600000","ECCENTRICITY":"0.00001670","MEAN_MOTION_DDOT":"0.0000000000000","EPHEMERIS_TYPE":"0","DECAY_DATE":null,"SEMIMAJOR_AXIS":"6925.389","PERIAPSIS":"547.139","COUNTRY_CODE":"US","MEAN_MOTION_DOT":"0.00000472","NORAD_CAT_ID":"47549","FILE":"3103208","PERIOD":"95.593","CENTER_NAME":"EARTH","OBJECT_NAME":"STARLINK-1806","RA_OF_ASC_NODE":"249.9872","REV_AT_EPOCH":"3119","REF_FRAME":"TEME","OBJECT_ID":"2021-009B"},{"ECCENTRICITY":"0.00008700","MEAN_MOTION_DDOT":"0.0000000000000","BSTAR":"0.00007803900000","PERIAPSIS":"546.602","EPHEMERIS_TYPE":"0","DECAY_DATE":null,"SEMIMAJOR_AXIS":"6925.340","PERIOD":"95.592","FILE":"3103208","CENTER_NAME":"EARTH","OBJECT_NAME":"STARLINK-1909","MEAN_MOTION_DOT":"0.00000881","COUNTRY_CODE":"US","NORAD_CAT_ID":"47550","REV_AT_EPOCH":"3134","REF_FRAME":"TEME","OBJECT_ID":"2021-009C","RA_OF_ASC_NODE":"239.6284","CLASSIFICATION_TYPE":"U","EPOCH":"2021-08-25T19:25:28.506144","TLE_LINE1":"1 47550U 21009C   21237.80935771  .00000881  00000-0  78039-4 0  9996","LAUNCH_DATE":"2021-02-04","MEAN_ANOMALY":"282.4884","ARG_OF_PERICENTER":"77.6202","RCS_SIZE":"LARGE","INCLINATION":"53.0556","ELEMENT_SET_NO":"999","GP_ID":"183447225","TIME_SYSTEM":"UTC","MEAN_ELEMENT_THEORY":"SGP4","OBJECT_TYPE":"PAYLOAD","MEAN_MOTION":"15.06402901","APOAPSIS":"547.807","SITE":"AFETR","TLE_LINE2":"2 47550  53.0556 239.6284 0000870  77.6202 282.4884 15.06402901 31345"},{"REF_FRAME":"TEME","REV_AT_EPOCH":"3102","OBJECT_ID":"2021-009D","RA_OF_ASC_NODE":"260.8475","PERIOD":"95.592","FILE":"3103042","OBJECT_NAME":"STARLINK-1938","CENTER_NAME":"EARTH","MEAN_MOTION_DOT":"0.00000410","COUNTRY_CODE":"US","NORAD_CAT_ID":"47551","PERIAPSIS":"547.022","EPHEMERIS_TYPE":"0","DECAY_DATE":null,"SEMIMAJOR_AXIS":"6925.340","ECCENTRICITY":"0.00002650","MEAN_MOTION_DDOT":"0.0000000000000","BSTAR":"0.00004639900000","TIME_SYSTEM":"UTC","MEAN_ELEMENT_THEORY":"SGP4","OBJECT_TYPE":"PAYLOAD","MEAN_MOTION":"15.06402730","APOAPSIS":"547.389","SITE":"AFETR","TLE_LINE2":"2 47551  53.0546 260.8475 0000265  29.4530 330.6474 15.06402730 31026","RCS_SIZE":"LARGE","ARG_OF_PERICENTER":"29.4530","ELEMENT_SET_NO":"999","INCLINATION":"53.0546","GP_ID":"183418512","TLE_LINE1":"1 47551U 21009D   21237.53842965  .00000410  00000-0  46399-4 0  9991","MEAN_ANOMALY":"330.6474","LAUNCH_DATE":"2021-02-04","EPOCH":"2021-08-25T12:55:20.321760","CLASSIFICATION_TYPE":"U"},{"MEAN_ANOMALY":"337.4583","LAUNCH_DATE":"2021-02-04","TLE_LINE1":"1 47552U 21009E   21237.74208387  .00000802  00000-0  72716-4 0  9996","CLASSIFICATION_TYPE":"U","EPOCH":"2021-08-25T17:48:36.046368","SITE":"AFETR","TLE_LINE2":"2 47552  53.0556 249.9431 0000137  22.6412 337.4583 15.06396719 31193","TIME_SYSTEM":"UTC","MEAN_ELEMENT_THEORY":"SGP4","OBJECT_TYPE":"PAYLOAD","MEAN_MOTION":"15.06396719","APOAPSIS":"547.318","INCLINATION":"53.0556","ELEMENT_SET_NO":"999","GP_ID":"183446220","ARG_OF_PERICENTER":"22.6412","RCS_SIZE":"LARGE","EPHEMERIS_TYPE":"0","DECAY_DATE":null,"SEMIMAJOR_AXIS":"6925.359","PERIAPSIS":"547.129","BSTAR":"0.00007271600000","ECCENTRICITY":"0.00001370","MEAN_MOTION_DDOT":"0.0000000000000","RA_OF_ASC_NODE":"249.9431","REV_AT_EPOCH":"3119","REF_FRAME":"TEME","OBJECT_ID":"2021-009E","MEAN_MOTION_DOT":"0.00000802","COUNTRY_CODE":"US","NORAD_CAT_ID":"47552","PERIOD":"95.592","FILE":"3103208","OBJECT_NAME":"STARLINK-1940","CENTER_NAME":"EARTH"},{"INCLINATION":"53.0549","ELEMENT_SET_NO":"999","GP_ID":"183446966","ARG_OF_PERICENTER":"74.7977","RCS_SIZE":"LARGE","TLE_LINE2":"2 47553  53.0549 250.0135 0007648  74.7977 285.3858 15.06381277 31197","SITE":"AFETR","TIME_SYSTEM":"UTC","MEAN_ELEMENT_THEORY":"SGP4","OBJECT_TYPE":"PAYLOAD","APOAPSIS":"552.567","MEAN_MOTION":"15.06381277","CLASSIFICATION_TYPE":"U","EPOCH":"2021-08-25T17:27:24.691104","MEAN_ANOMALY":"285.3858","LAUNCH_DATE":"2021-02-04","TLE_LINE1":"1 47553U 21009F   21237.72736911  .00000155  00000-0  29474-4 0  9998","COUNTRY_CODE":"US","MEAN_MOTION_DOT":"0.00000155","NORAD_CAT_ID":"47553","FILE":"3103208","PERIOD":"95.593","OBJECT_NAME":"STARLINK-1951","CENTER_NAME":"EARTH","RA_OF_ASC_NODE":"250.0135","REF_FRAME":"TEME","REV_AT_EPOCH":"3119","OBJECT_ID":"2021-009F","BSTAR":"0.00002947400000","ECCENTRICITY":"0.00076480","MEAN_MOTION_DDOT":"0.0000000000000","EPHEMERIS_TYPE":"0","DECAY_DATE":null,"SEMIMAJOR_AXIS":"6925.406","PERIAPSIS":"541.974"},{"NORAD_CAT_ID":"47554","COUNTRY_CODE":"US","MEAN_MOTION_DOT":"-0.00000857","OBJECT_NAME":"STARLINK-1953","CENTER_NAME":"EARTH","PERIOD":"95.593","FILE":"3103208","RA_OF_ASC_NODE":"269.6090","REF_FRAME":"TEME","REV_AT_EPOCH":"3092","OBJECT_ID":"2021-009G","BSTAR":"-0.00003856500000","MEAN_MOTION_DDOT":"0.0000000000000","ECCENTRICITY":"0.00051770","EPHEMERIS_TYPE":"0","SEMIMAJOR_AXIS":"6925.374","DECAY_DATE":null,"PERIAPSIS":"543.654","GP_ID":"183446725","ELEMENT_SET_NO":"999","INCLINATION":"53.0551","RCS_SIZE":"LARGE","ARG_OF_PERICENTER":"215.2610","SITE":"AFETR","TLE_LINE2":"2 47554  53.0551 269.6090 0005177 215.2610 144.8037 15.06391603 30920","MEAN_ELEMENT_THEORY":"SGP4","TIME_SYSTEM":"UTC","APOAPSIS":"550.825","MEAN_MOTION":"15.06391603","OBJECT_TYPE":"PAYLOAD","EPOCH":"2021-08-25T19:32:05.270496","CLASSIFICATION_TYPE":"U","LAUNCH_DATE":"2021-02-04","MEAN_ANOMALY":"144.8037","TLE_LINE1":"1 47554U 21009G   21237.81394989 -.00000857  00000-0 -38565-4 0  9996"},{"MEAN_ELEMENT_THEORY":"SGP4","TIME_SYSTEM":"UTC","MEAN_MOTION":"15.06392666","APOAPSIS":"547.490","OBJECT_TYPE":"PAYLOAD","SITE":"AFETR","TLE_LINE2":"2 47555  53.0548 259.4463 0000367  54.8189 305.2834 15.06392666 31077","ARG_OF_PERICENTER":"54.8189","RCS_SIZE":"LARGE","GP_ID":"183445976","INCLINATION":"53.0548","ELEMENT_SET_NO":"999","TLE_LINE1":"1 47555U 21009H   21237.85543274 -.00000842  00000-0 -37703-4 0  9991","LAUNCH_DATE":"2021-02-04","MEAN_ANOMALY":"305.2834","CLASSIFICATION_TYPE":"U","EPOCH":"2021-08-25T20:31:49.388736","REV_AT_EPOCH":"3107","REF_FRAME":"TEME","OBJECT_ID":"2021-009H","RA_OF_ASC_NODE":"259.4463","OBJECT_NAME":"STARLINK-1954","CENTER_NAME":"EARTH","PERIOD":"95.593","FILE":"3103208","NORAD_CAT_ID":"47555","COUNTRY_CODE":"US","MEAN_MOTION_DOT":"-0.00000842","PERIAPSIS":"546.982","EPHEMERIS_TYPE":"0","SEMIMAJOR_AXIS":"6925.371","DECAY_DATE":null,"MEAN_MOTION_DDOT":"0.0000000000000","ECCENTRICITY":"0.00003670","BSTAR":"-0.00003770300000"},{"COUNTRY_CODE":"US","MEAN_MOTION_DOT":"0.00000610","NORAD_CAT_ID":"47556","PERIOD":"95.592","FILE":"3103208","OBJECT_NAME":"STARLINK-1955","CENTER_NAME":"EARTH","RA_OF_ASC_NODE":"279.5651","REV_AT_EPOCH":"3078","REF_FRAME":"TEME","OBJECT_ID":"2021-009J","BSTAR":"0.00005977900000","ECCENTRICITY":"0.00002420","MEAN_MOTION_DDOT":"0.0000000000000","EPHEMERIS_TYPE":"0","DECAY_DATE":null,"SEMIMAJOR_AXIS":"6925.355","PERIAPSIS":"547.053","INCLINATION":"53.0546","ELEMENT_SET_NO":"999","GP_ID":"183445720","RCS_SIZE":"LARGE","ARG_OF_PERICENTER":"266.5458","TLE_LINE2":"2 47556  53.0546 279.5651 0000242 266.5458  93.5504 15.06397862 30782","SITE":"AFETR","TIME_SYSTEM":"UTC","MEAN_ELEMENT_THEORY":"SGP4","OBJECT_TYPE":"PAYLOAD","MEAN_MOTION":"15.06397862","APOAPSIS":"547.388","EPOCH":"2021-08-25T19:46:42.044736","CLASSIFICATION_TYPE":"U","LAUNCH_DATE":"2021-02-04","MEAN_ANOMALY":"93.5504","TLE_LINE1":"1 47556U 21009J   21237.82409774  .00000610  00000-0  59779-4 0  9993"}];
